STARLINK-31789          
1 59644U 24082P   26180.82860908  .00013279  00000+0  49105-3 0  9995
2 59644  42.9996 226.3757 0000995 283.0886  76.9854 15.27589013122161
STARLINK-31795          
1 59645U 24082Q   26182.22303690  .00000490  00000+0  27343-4 0  9994
2 59645  43.0005 160.0631 0000929 270.6736  89.4009 15.27577014122847
STARLINK-31796          
1 59646U 24082R   26181.55428626  .00000766  00000+0  37367-4 0  9990
2 59646  43.0006 222.3619 0001068 281.7337  78.3395 15.27577078122230
STARLINK-31801          
1 59647U 24082S   26181.52616400  .00000022  00000+0  10323-4 0  9995
2 59647  43.0004 223.0089 0001522 275.9297  84.1381 15.27575424122113
STARLINK-31787          
1 59650U 24082V   26181.49275554  .00000008  00000+0  98198-5 0  9997
2 59650  43.0021 222.7588 0001012 280.2880  79.7857 15.27573529122265
STARLINK-31277          
1 59651U 24082W   26181.56585044  .00000780  00000+0  37872-4 0  9992
2 59651  43.0025 222.4522 0001243 301.9194  58.1537 15.27570103122272
STARLINK-31799          
1 59652U 24082X   26181.53775941  .00000117  00000+0  13791-4 0  9995
2 59652  43.0047 211.8347 0002026 275.6836  84.3785 15.27563191122246
STARLINK-31764          
1 59653U 24082Y   26181.47862030 -.00000087  00000+0  63564-5 0  9996
2 59653  43.0011 222.6505 0001134 279.9140  80.1583 15.27575104122267
STARLINK-31589          
1 59654U 24084A   26182.12552122  .00002561  00000+0  10251-3 0  9991
2 59654  43.0020 121.0074 0001175 260.0457 100.0262 15.27598484121742
STARLINK-31665          
1 59655U 24084B   26181.87217058  .00001189  00000+0  52732-4 0  9995
2 59655  43.0024 119.0932 0000907 278.5216  81.5533 15.27576416121729
STARLINK-31912          
1 59656U 24084C   26181.95763241 -.00001000  00000+0 -26830-4 0  9999
2 59656  42.9972 122.3247 0000425 233.8715 126.2097 15.27583758121694
STARLINK-31904          
1 59657U 24084D   26182.01273356  .00001028  00000+0  46872-4 0  9997
2 59657  43.0033 121.8819 0001327 240.1566 119.9154 15.27584552121709
STARLINK-31858          
1 59658U 24084E   26180.54851291  .00001384  00000+0  59754-4 0  9992
2 59658  43.0004 129.8066 0001357 273.4759  86.5937 15.27603279121487
STARLINK-31881          
1 59659U 24084F   26182.11058316  .00001453  00000+0  62291-4 0  9992
2 59659  43.0013 117.4304 0000482 286.5847  73.4952 15.27581219121769
STARLINK-31885          
1 59660U 24084G   26182.01065481 -.00000587  00000+0 -11801-4 0  9994
2 59660  43.0008 118.4055 0000889 261.8855  98.1896 15.27571942121746
STARLINK-31880          
1 59661U 24084H   26182.12720522  .00011915  00000+0  44042-3 0  9998
2 59661  43.0031 117.5606 0000999 145.3762 214.7155 15.27685151121764
STARLINK-31886          
1 59662U 24084J   26181.88839301  .00003269  00000+0  12826-3 0  9995
2 59662  43.0018 122.6662 0000877 267.0367  93.0384 15.27582385121685
STARLINK-31909          
1 59663U 24084K   26182.10754186 -.00002609  00000+0 -85270-4 0  9992
2 59663  43.0034 120.9102 0001741 269.2821  90.7831 15.27588478121729
STARLINK-31910          
1 59664U 24084L   26181.86011358  .00000611  00000+0  31709-4 0  9999
2 59664  43.0006 122.4422 0001170 271.9274  88.1444 15.27584218121683
STARLINK-31902          
1 59666U 24084N   26181.96149265 -.00000472  00000+0 -76288-5 0  9990
2 59666  42.9979 122.3465 0001021 180.7984 179.2866 15.27577649121699
STARLINK-31913          
1 59667U 24084P   26182.12343535  .00000437  00000+0  25388-4 0  9999
2 59667  43.0009 117.5252 0000440 242.9533 117.1274 15.27577170121762
STARLINK-31866          
1 59668U 24084Q   26181.84181496  .00000800  00000+0  38585-4 0  9991
2 59668  43.0015 115.3728 0000922 265.9039  94.1708 15.27576317121763
STARLINK-31917          
1 59669U 24084R   26182.13965519  .00006059  00000+0  22948-3 0  9998
2 59669  43.0076 121.1083 0000468 269.5105  90.5694 15.27584200121729
STARLINK-31860          
1 59670U 24084S   26182.00679949  .00001725  00000+0  72163-4 0  9995
2 59670  43.0035 118.3747 0000886 207.5612 152.5193 15.27584881121728
STARLINK-31854          
1 59671U 24084T   26182.02829454  .00000980  00000+0  45123-4 0  9994
2 59671  43.0018  88.6910 0001654 280.3553  79.7112 15.27580177122061
STARLINK-31842          
1 59672U 24084U   26181.81834910  .00001675  00000+0  70386-4 0  9995
2 59672  43.0057 119.5372 0001621 300.4897  59.5795 15.27585573121719
STARLINK-31871          
1 59673U 24084V   26182.13194586 -.00000902  00000+0 -23238-4 0  9998
2 59673  43.0050 121.0475 0001216 256.2559 103.8157 15.27587217121721
STARLINK-31875          
1 59674U 24084W   26182.12985691 -.00000004  00000+0  93707-5 0  9994
2 59674  43.0025 117.5785 0000897 279.6150  80.4601 15.27584292121766
STARLINK-31877          
1 59675U 24084X   26181.95120951 -.00000156  00000+0  38436-5 0  9991
2 59675  43.0023 122.2736 0000946 272.9134  87.1609 15.27576699121693
STARLINK-31884          
1 59676U 24084Y   26182.13581212  .00040312  00000+0  14651-2 0  9991
2 59676  42.9984 121.0993 0000386 213.9269 146.1558 15.27610281121721
