OBJECT_NAME,OBJECT_ID,EPOCH,MEAN_MOTION,ECCENTRICITY,INCLINATION,RA_OF_ASC_NODE,ARG_OF_PERICENTER,MEAN_ANOMALY,EPHEMERIS_TYPE,CLASSIFICATION_TYPE,NORAD_CAT_ID,ELEMENT_SET_NO,REV_AT_EPOCH,BSTAR,MEAN_MOTION_DOT,MEAN_MOTION_DDOT
STARLINK-31789,2024-082P,2026-06-29T19:53:11.824512,15.27589013,.00009953,42.9996,226.3757,283.0886,76.9854,0,U,59644,999,12216,.49105304E-3,.13279E-3,0
STARLINK-31795,2024-082Q,2026-07-01T05:21:10.388160,15.27577014,.0000929,43.0005,160.0631,270.6736,89.4009,0,U,59645,999,12284,.27343E-4,.49E-5,0
STARLINK-31796,2024-082R,2026-06-30T13:18:10.332864,15.27577078,.00010681,43.0006,222.3619,281.7337,78.3395,0,U,59646,999,12223,.37366766E-4,.766E-5,0
STARLINK-31801,2024-082S,2026-06-30T12:37:40.569600,15.27575424,.00015227,43.0004,223.0089,275.9297,84.1381,0,U,59647,999,12211,.10322574E-4,.22E-6,0
STARLINK-31787,2024-082V,2026-06-30T11:49:34.078656,15.27573529,.0001012,43.0021,222.7588,280.2880,79.7857,0,U,59650,999,12226,.9819788E-5,.8E-7,0
STARLINK-31277,2024-082W,2026-06-30T13:34:49.478016,15.27570103,.00012435,43.0025,222.4522,301.9194,58.1537,0,U,59651,999,12227,.37872307E-4,.78E-5,0
STARLINK-31799,2024-082X,2026-06-30T12:54:22.413024,15.27563191,.00020263,43.0047,211.8347,275.6836,84.3785,0,U,59652,999,12224,.13791331E-4,.117E-5,0
STARLINK-31764,2024-082Y,2026-06-30T11:29:12.793920,15.27575104,.00011345,43.0011,222.6505,279.9140,80.1583,0,U,59653,999,12226,.6356405E-5,-.87E-6,0
STARLINK-31589,2024-084A,2026-07-01T03:00:45.033408,15.27598484,.0001175,43.0020,121.0074,260.0457,100.0262,0,U,59654,999,12174,.10251E-3,.2561E-4,0
STARLINK-31665,2024-084B,2026-06-30T20:55:55.538112,15.27576416,.0000907,43.0024,119.0932,278.5216,81.5533,0,U,59655,999,12172,.52732E-4,.1189E-4,0
STARLINK-31912,2024-084C,2026-06-30T22:58:59.440224,15.27583758,.0000425,42.9972,122.3247,233.8715,126.2097,0,U,59656,999,12169,-.2683E-4,-.1E-4,0
STARLINK-31904,2024-084D,2026-07-01T00:18:20.179584,15.27584552,.0001327,43.0033,121.8819,240.1566,119.9154,0,U,59657,999,12170,.46872E-4,.1028E-4,0
STARLINK-31858,2024-084E,2026-06-29T13:09:51.515424,15.27603279,.00013578,43.0004,129.8066,273.4759,86.5937,0,U,59658,999,12148,.59754453E-4,.1384E-4,0
STARLINK-31881,2024-084F,2026-07-01T02:39:14.385024,15.27581219,.0000482,43.0013,117.4304,286.5847,73.4952,0,U,59659,999,12176,.62291E-4,.1453E-4,0
STARLINK-31885,2024-084G,2026-07-01T00:15:20.575584,15.27571942,.0000889,43.0008,118.4055,261.8855,98.1896,0,U,59660,999,12174,-.11801E-4,-.587E-5,0
STARLINK-31880,2024-084H,2026-07-01T03:03:10.531008,15.27685151,.0000999,43.0031,117.5606,145.3762,214.7155,0,U,59661,999,12176,.44042E-3,.11915E-3,0
STARLINK-31886,2024-084J,2026-06-30T21:19:17.156064,15.27582385,.0000877,43.0018,122.6662,267.0367,93.0384,0,U,59662,999,12168,.12826E-3,.3269E-4,0
STARLINK-31909,2024-084K,2026-07-01T02:34:51.616704,15.27588478,.0001741,43.0034,120.9102,269.2821,90.7831,0,U,59663,999,12172,-.8527E-4,-.2609E-4,0
STARLINK-31910,2024-084L,2026-06-30T20:38:33.813312,15.27584218,.000117,43.0006,122.4422,271.9274,88.1444,0,U,59664,999,12168,.31709E-4,.611E-5,0
STARLINK-31902,2024-084N,2026-06-30T23:04:32.964960,15.27577649,.0001021,42.9979,122.3465,180.7984,179.2866,0,U,59666,999,12169,-.76288E-5,-.472E-5,0
STARLINK-31913,2024-084P,2026-07-01T02:57:44.814240,15.27577170,.000044,43.0009,117.5252,242.9533,117.1274,0,U,59667,999,12176,.25388E-4,.437E-5,0
STARLINK-31866,2024-084Q,2026-06-30T20:12:12.812544,15.27576317,.0000922,43.0015,115.3728,265.9039,94.1708,0,U,59668,999,12176,.38585307E-4,.8E-5,0
STARLINK-31917,2024-084R,2026-07-01T03:21:06.208416,15.27584200,.0000468,43.0076,121.1083,269.5105,90.5694,0,U,59669,999,12172,.22948E-3,.6059E-4,0
STARLINK-31860,2024-084S,2026-07-01T00:09:47.475936,15.27584881,.0000886,43.0035,118.3747,207.5612,152.5193,0,U,59670,999,12172,.72163E-4,.1725E-4,0
STARLINK-31854,2024-084T,2026-07-01T00:40:44.648256,15.27580177,.0001654,43.0018,88.6910,280.3553,79.7112,0,U,59671,999,12206,.45123E-4,.98E-5,0
STARLINK-31842,2024-084U,2026-06-30T19:38:25.362240,15.27585573,.00016215,43.0057,119.5372,300.4897,59.5795,0,U,59672,999,12171,.70386213E-4,.1675E-4,0
STARLINK-31871,2024-084V,2026-07-01T03:10:00.122304,15.27587217,.0001216,43.0050,121.0475,256.2559,103.8157,0,U,59673,999,12172,-.23238E-4,-.902E-5,0
STARLINK-31875,2024-084W,2026-07-01T03:06:59.637024,15.27584292,.0000897,43.0025,117.5785,279.6150,80.4601,0,U,59674,999,12176,.93707E-5,-.4E-7,0
STARLINK-31877,2024-084X,2026-06-30T22:49:44.501664,15.27576699,.0000946,43.0023,122.2736,272.9134,87.1609,0,U,59675,999,12169,.38436E-5,-.156E-5,0
STARLINK-31884,2024-084Y,2026-07-01T03:15:34.167168,15.27610281,.0000386,42.9984,121.0993,213.9269,146.1558,0,U,59676,999,12172,.14651E-2,.40312E-3,0
